[{"OBJECT_NAME":"YAOGAN-36 04C","OBJECT_ID":"2022-171E","EPOCH":"2026-03-09T18:55:44.889600","MEAN_MOTION":15.29852307,"ECCENTRICITY":0.00066848,"INCLINATION":34.9797,"RA_OF_ASC_NODE":96.6578,"ARG_OF_PERICENTER":275.3761,"MEAN_ANOMALY":84.6192,"EPHEMERIS_TYPE":0,"CLASSIFICATION_TYPE":"U","NORAD_CAT_ID":54750,"ELEMENT_SET_NO":999,"REV_AT_EPOCH":18024,"BSTAR":0.00054591902,"MEAN_MOTION_DOT":0.00016196,"MEAN_MOTION_DDOT":0},{"OBJECT_NAME":"STARLINK-32245","OBJECT_ID":"2024-222V","EPOCH":"2026-03-09T12:41:04.639488","MEAN_MOTION":15.27577866,"ECCENTRICITY":0.0001484,"INCLINATION":42.9989,"RA_OF_ASC_NODE":137.1483,"ARG_OF_PERICENTER":283.7594,"MEAN_ANOMALY":76.3092,"EPHEMERIS_TYPE":0,"CLASSIFICATION_TYPE":"U","NORAD_CAT_ID":62133,"ELEMENT_SET_NO":999,"REV_AT_EPOCH":7288,"BSTAR":0.00082597,"MEAN_MOTION_DOT":0.00022535,"MEAN_MOTION_DDOT":0}]
